[{"OBJECT_NAME":"OBJECT D","OBJECT_ID":"2024-203D","EPOCH":"2026-03-09T23:01:14.628576","MEAN_MOTION":15.25394324,"ECCENTRICITY":0.00105281,"INCLINATION":97.4343,"RA_OF_ASC_NODE":139.6527,"ARG_OF_PERICENTER":340.1906,"MEAN_ANOMALY":19.8921,"EPHEMERIS_TYPE":0,"CLASSIFICATION_TYPE":"U","NORAD_CAT_ID":61872,"ELEMENT_SET_NO":999,"REV_AT_EPOCH":7378,"BSTAR":0.00059366578,"MEAN_MOTION_DOT":0.00014956,"MEAN_MOTION_DDOT":0},{"OBJECT_NAME":"STARLINK-36470","OBJECT_ID":"2026-002Q","EPOCH":"2026-03-09T01:54:12.944736","MEAN_MOTION":15.27587547,"ECCENTRICITY":0.00018639,"INCLINATION":43.0005,"RA_OF_ASC_NODE":328.875,"ARG_OF_PERICENTER":264.6506,"MEAN_ANOMALY":95.4133,"EPHEMERIS_TYPE":0,"CLASSIFICATION_TYPE":"U","NORAD_CAT_ID":67319,"ELEMENT_SET_NO":999,"REV_AT_EPOCH":1104,"BSTAR":0.0013043973,"MEAN_MOTION_DOT":0.00035815,"MEAN_MOTION_DDOT":0}]
